[{"OBJECT_NAME":"STARLINK-4619","OBJECT_ID":"2022-141AL","EPOCH":"2026-03-09T22:46:21.699264","MEAN_MOTION":15.08811049,"ECCENTRICITY":0.00016033,"INCLINATION":53.219,"RA_OF_ASC_NODE":353.1952,"ARG_OF_PERICENTER":103.8378,"MEAN_ANOMALY":256.2792,"EPHEMERIS_TYPE":0,"CLASSIFICATION_TYPE":"U","NORAD_CAT_ID":54191,"ELEMENT_SET_NO":999,"REV_AT_EPOCH":18603,"BSTAR":0.00020399921,"MEAN_MOTION_DOT":2.958e-5,"MEAN_MOTION_DDOT":0},{"OBJECT_NAME":"OBJECT BE","OBJECT_ID":"2018-099BE","EPOCH":"2026-03-09T15:10:24.322944","MEAN_MOTION":15.09972337,"ECCENTRICITY":0.0006427,"INCLINATION":97.4031,"RA_OF_ASC_NODE":111.7891,"ARG_OF_PERICENTER":340.4925,"MEAN_ANOMALY":19.6058,"EPHEMERIS_TYPE":0,"CLASSIFICATION_TYPE":"U","NORAD_CAT_ID":43810,"ELEMENT_SET_NO":999,"REV_AT_EPOCH":39698,"BSTAR":0.00027209,"MEAN_MOTION_DOT":4.358e-5,"MEAN_MOTION_DDOT":0}]
